[{"ORDINAL":"1","COMMENT":"GENERATED VIA SPACETRACK.ORG API","ORIGINATOR":"JSPOC","NORAD_CAT_ID":"18129","OBJECT_NAME":"COSMOS 1861","OBJECT_TYPE":"PAYLOAD","CLASSIFICATION_TYPE":"U","INTLDES":"87054A","EPOCH":"2018-10-12 10:24:20","EPOCH_MICROSECONDS":"759904","MEAN_MOTION":"13.73011136","ECCENTRICITY":"0.001148","INCLINATION":"82.9259","RA_OF_ASC_NODE":"238.7029","ARG_OF_PERICENTER":"182.3104","MEAN_ANOMALY":"295.2929","EPHEMERIS_TYPE":"0","ELEMENT_SET_NO":"999","REV_AT_EPOCH":"56864","BSTAR":"8.7765e-06","MEAN_MOTION_DOT":"2.3e-07","MEAN_MOTION_DDOT":"0","FILE":"2344079","TLE_LINE0":"0 COSMOS 1861","TLE_LINE1":"1 18129U 87054A   18285.43357361  .00000023  00000-0  87765-5 0  9994","TLE_LINE2":"2 18129  82.9259 238.7029 0011480 182.3104 295.2929 13.73011136568645","OBJECT_ID":"1987-054A","OBJECT_NUMBER":"18129","SEMIMAJOR_AXIS":"7366.917","PERIOD":"104.878","APOGEE":"997.239","PERIGEE":"980.325"},{"ORDINAL":"1","COMMENT":"GENERATED VIA SPACETRACK.ORG API","ORIGINATOR":"JSPOC","NORAD_CAT_ID":"20437","OBJECT_NAME":"OSCAR 14 (UOSAT 3)","OBJECT_TYPE":"PAYLOAD","CLASSIFICATION_TYPE":"U","INTLDES":"90005B","EPOCH":"2018-10-12 11:49:39","EPOCH_MICROSECONDS":"756000","MEAN_MOTION":"14.32300248","ECCENTRICITY":"0.001025","INCLINATION":"98.7179","RA_OF_ASC_NODE":"235.2575","ARG_OF_PERICENTER":"193.3264","MEAN_ANOMALY":"281.5721","EPHEMERIS_TYPE":"0","ELEMENT_SET_NO":"999","REV_AT_EPOCH":"50024","BSTAR":"1.7349e-05","MEAN_MOTION_DOT":"2e-08","MEAN_MOTION_DDOT":"0","FILE":"2344020","TLE_LINE0":"0 OSCAR 14 (UOSAT 3)","TLE_LINE1":"1 20437U 90005B   18285.49282125  .00000002  00000-0  17349-4 0  9997","TLE_LINE2":"2 20437  98.7179 235.2575 0010250 193.3264 281.5721 14.32300248500248","OBJECT_ID":"1990-005B","OBJECT_NUMBER":"20437","SEMIMAJOR_AXIS":"7162.189","PERIOD":"100.537","APOGEE":"791.395","PERIGEE":"776.713"},{"ORDINAL":"1","COMMENT":"GENERATED VIA SPACETRACK.ORG API","ORIGINATOR":"JSPOC","NORAD_CAT_ID":"20438","OBJECT_NAME":"OSCAR 15 (UOSAT 4)","OBJECT_TYPE":"PAYLOAD","CLASSIFICATION_TYPE":"U","INTLDES":"90005C","EPOCH":"2018-10-12 12:28:33","EPOCH_MICROSECONDS":"934080","MEAN_MOTION":"14.31022036","ECCENTRICITY":"0.0008807","INCLINATION":"98.7754","RA_OF_ASC_NODE":"241.098","ARG_OF_PERICENTER":"261.0808","MEAN_ANOMALY":"163.6632","EPHEMERIS_TYPE":"0","ELEMENT_SET_NO":"999","REV_AT_EPOCH":"49926","BSTAR":"1.5081e-05","MEAN_MOTION_DOT":"-6e-08","MEAN_MOTION_DDOT":"0","FILE":"2344043","TLE_LINE0":"0 OSCAR 15 (UOSAT 4)","TLE_LINE1":"1 20438U 90005C   18285.51983720 -.00000006  00000-0  15081-4 0  9996","TLE_LINE2":"2 20438  98.7754 241.0980 0008807 261.0808 163.6632 14.31022036499260","OBJECT_ID":"1990-005C","OBJECT_NUMBER":"20438","SEMIMAJOR_AXIS":"7166.453","PERIOD":"100.627","APOGEE":"794.630","PERIGEE":"782.007"},{"ORDINAL":"1","COMMENT":"GENERATED VIA SPACETRACK.ORG API","ORIGINATOR":"JSPOC","NORAD_CAT_ID":"20439","OBJECT_NAME":"OSCAR 16 (PACSAT)","OBJECT_TYPE":"PAYLOAD","CLASSIFICATION_TYPE":"U","INTLDES":"90005D","EPOCH":"2018-10-11 20:15:51","EPOCH_MICROSECONDS":"720768","MEAN_MOTION":"14.32734817","ECCENTRICITY":"0.0010741","INCLINATION":"98.6582","RA_OF_ASC_NODE":"227.3508","ARG_OF_PERICENTER":"176.9387","MEAN_ANOMALY":"239.7415","EPHEMERIS_TYPE":"0","ELEMENT_SET_NO":"999","REV_AT_EPOCH":"50012","BSTAR":"2.1702e-05","MEAN_MOTION_DOT":"1.5e-07","MEAN_MOTION_DDOT":"0","FILE":"2344207","TLE_LINE0":"0 OSCAR 16 (PACSAT)","TLE_LINE1":"1 20439U 90005D   18284.84434862 +.00000015 +00000-0 +21702-4 0  9996","TLE_LINE2":"2 20439 098.6582 227.3508 0010741 176.9387 239.7415 14.32734817500128","OBJECT_ID":"1990-005D","OBJECT_NUMBER":"20439","SEMIMAJOR_AXIS":"7160.740","PERIOD":"100.507","APOGEE":"790.297","PERIGEE":"774.914"},{"ORDINAL":"1","COMMENT":"GENERATED VIA SPACETRACK.ORG API","ORIGINATOR":"JSPOC","NORAD_CAT_ID":"20440","OBJECT_NAME":"OSCAR 17 (DOVE)","OBJECT_TYPE":"PAYLOAD","CLASSIFICATION_TYPE":"U","INTLDES":"90005E","EPOCH":"2018-10-12 11:42:02","EPOCH_MICROSECONDS":"655072","MEAN_MOTION":"14.3313847","ECCENTRICITY":"0.0011134","INCLINATION":"98.6359","RA_OF_ASC_NODE":"226.1627","ARG_OF_PERICENTER":"158.3996","MEAN_ANOMALY":"317.6988","EPHEMERIS_TYPE":"0","ELEMENT_SET_NO":"999","REV_AT_EPOCH":"50072","BSTAR":"2.3286e-05","MEAN_MOTION_DOT":"2e-07","MEAN_MOTION_DDOT":"0","FILE":"2344108","TLE_LINE0":"0 OSCAR 17 (DOVE)","TLE_LINE1":"1 20440U 90005E   18285.48753073  .00000020  00000-0  23286-4 0  9992","TLE_LINE2":"2 20440  98.6359 226.1627 0011134 158.3996 317.6988 14.33138470500729","OBJECT_ID":"1990-005E","OBJECT_NUMBER":"20440","SEMIMAJOR_AXIS":"7159.396","PERIOD":"100.478","APOGEE":"789.232","PERIGEE":"773.290"},{"ORDINAL":"1","COMMENT":"GENERATED VIA SPACETRACK.ORG API","ORIGINATOR":"JSPOC","NORAD_CAT_ID":"20441","OBJECT_NAME":"OSCAR 18 (WEBERSAT)","OBJECT_TYPE":"PAYLOAD","CLASSIFICATION_TYPE":"U","INTLDES":"90005F","EPOCH":"2018-10-11 20:31:01","EPOCH_MICROSECONDS":"2144","MEAN_MOTION":"14.32781265","ECCENTRICITY":"0.0011514","INCLINATION":"98.6368","RA_OF_ASC_NODE":"224.619","ARG_OF_PERICENTER":"170.5179","MEAN_ANOMALY":"253.5407","EPHEMERIS_TYPE":"0","ELEMENT_SET_NO":"999","REV_AT_EPOCH":"50023","BSTAR":"1.6995e-05","MEAN_MOTION_DOT":"2e-08","MEAN_MOTION_DDOT":"0","FILE":"2344207","TLE_LINE0":"0 OSCAR 18 (WEBERSAT)","TLE_LINE1":"1 20441U 90005F   18284.85487271 +.00000002 +00000-0 +16995-4 0  9996","TLE_LINE2":"2 20441 098.6368 224.6190 0011514 170.5179 253.5407 14.32781265500234","OBJECT_ID":"1990-005F","OBJECT_NUMBER":"20441","SEMIMAJOR_AXIS":"7160.586","PERIOD":"100.503","APOGEE":"790.695","PERIGEE":"774.206"},{"ORDINAL":"1","COMMENT":"GENERATED VIA SPACETRACK.ORG API","ORIGINATOR":"JSPOC","NORAD_CAT_ID":"20442","OBJECT_NAME":"OSCAR 19 (LUSAT)","OBJECT_TYPE":"PAYLOAD","CLASSIFICATION_TYPE":"U","INTLDES":"90005G","EPOCH":"2018-10-11 19:49:20","EPOCH_MICROSECONDS":"863488","MEAN_MOTION":"14.32906729","ECCENTRICITY":"0.0012014","INCLINATION":"98.618","RA_OF_ASC_NODE":"222.6399","ARG_OF_PERICENTER":"160.9636","MEAN_ANOMALY":"199.1999","EPHEMERIS_TYPE":"0","ELEMENT_SET_NO":"999","REV_AT_EPOCH":"50053","BSTAR":"2.1726e-05","MEAN_MOTION_DOT":"1.5e-07","MEAN_MOTION_DDOT":"0","FILE":"2344207","TLE_LINE0":"0 OSCAR 19 (LUSAT)","TLE_LINE1":"1 20442U 90005G   18284.82593592 +.00000015 +00000-0 +21726-4 0  9990","TLE_LINE2":"2 20442 098.6180 222.6399 0012014 160.9636 199.1999 14.32906729500531","OBJECT_ID":"1990-005G","OBJECT_NUMBER":"20442","SEMIMAJOR_AXIS":"7160.168","PERIOD":"100.495","APOGEE":"790.635","PERIGEE":"773.431"},{"ORDINAL":"1","COMMENT":"GENERATED VIA SPACETRACK.ORG API","ORIGINATOR":"JSPOC","NORAD_CAT_ID":"20480","OBJECT_NAME":"JAS 1B (FUJI 2)","OBJECT_TYPE":"PAYLOAD","CLASSIFICATION_TYPE":"U","INTLDES":"90013C","EPOCH":"2018-10-12 13:20:12","EPOCH_MICROSECONDS":"545664","MEAN_MOTION":"12.83419488","ECCENTRICITY":"0.0540505","INCLINATION":"99.0459","RA_OF_ASC_NODE":"333.8395","ARG_OF_PERICENTER":"18.9894","MEAN_ANOMALY":"343.0536","EPHEMERIS_TYPE":"0","ELEMENT_SET_NO":"999","REV_AT_EPOCH":"34359","BSTAR":"6.2341e-05","MEAN_MOTION_DOT":"-4e-08","MEAN_MOTION_DDOT":"0","FILE":"2344139","TLE_LINE0":"0 JAS 1B (FUJI 2)","TLE_LINE1":"1 20480U 90013C   18285.55570076 -.00000004  00000-0  62341-4 0  9991","TLE_LINE2":"2 20480  99.0459 333.8395 0540505  18.9894 343.0536 12.83419488343590","OBJECT_ID":"1990-013C","OBJECT_NUMBER":"20480","SEMIMAJOR_AXIS":"7705.889","PERIOD":"112.200","APOGEE":"1744.261","PERIGEE":"911.246"},{"ORDINAL":"1","COMMENT":"GENERATED VIA SPACETRACK.ORG API","ORIGINATOR":"JSPOC","NORAD_CAT_ID":"21087","OBJECT_NAME":"INFORMATOR 1","OBJECT_TYPE":"PAYLOAD","CLASSIFICATION_TYPE":"U","INTLDES":"91006A","EPOCH":"2018-10-11 20:13:31","EPOCH_MICROSECONDS":"886688","MEAN_MOTION":"13.75265855","ECCENTRICITY":"0.0036003","INCLINATION":"82.9458","RA_OF_ASC_NODE":"44.3087","ARG_OF_PERICENTER":"145.0368","MEAN_ANOMALY":"14.6703","EPHEMERIS_TYPE":"0","ELEMENT_SET_NO":"999","REV_AT_EPOCH":"38992","BSTAR":"1.7625e-05","MEAN_MOTION_DOT":"3.2e-07","MEAN_MOTION_DDOT":"0","FILE":"2344207","TLE_LINE0":"0 INFORMATOR 1","TLE_LINE1":"1 21087U 91006A   18284.84273017 +.00000032 +00000-0 +17625-4 0  9999","TLE_LINE2":"2 21087 082.9458 044.3087 0036003 145.0368 014.6703 13.75265855389920","OBJECT_ID":"1991-006A","OBJECT_NUMBER":"21087","SEMIMAJOR_AXIS":"7358.863","PERIOD":"104.707","APOGEE":"1007.222","PERIGEE":"954.234"},{"ORDINAL":"1","COMMENT":"GENERATED VIA SPACETRACK.ORG API","ORIGINATOR":"JSPOC","NORAD_CAT_ID":"21089","OBJECT_NAME":"COSMOS 2123","OBJECT_TYPE":"PAYLOAD","CLASSIFICATION_TYPE":"U","INTLDES":"91007A","EPOCH":"2018-10-12 11:49:53","EPOCH_MICROSECONDS":"994720","MEAN_MOTION":"13.74659924","ECCENTRICITY":"0.0028644","INCLINATION":"82.9204","RA_OF_ASC_NODE":"259.7118","ARG_OF_PERICENTER":"201.2513","MEAN_ANOMALY":"279.4936","EPHEMERIS_TYPE":"0","ELEMENT_SET_NO":"999","REV_AT_EPOCH":"38887","BSTAR":"-4.984e-06","MEAN_MOTION_DOT":"1e-07","MEAN_MOTION_DDOT":"0","FILE":"2344051","TLE_LINE0":"0 COSMOS 2123","TLE_LINE1":"1 21089U 91007A   18285.49298605  .00000010  00000-0 -49840-5 0  9996","TLE_LINE2":"2 21089  82.9204 259.7118 0028644 201.2513 279.4936 13.74659924388872","OBJECT_ID":"1991-007A","OBJECT_NUMBER":"21089","SEMIMAJOR_AXIS":"7361.025","PERIOD":"104.753","APOGEE":"1003.975","PERIGEE":"961.805"}]